NORAD_CAT_ID,OBJECT_NAME,OBJECT_TYPE,EPOCH,MEAN_MOTION,ECCENTRICITY,INCLINATION,RA_OF_ASC_NODE,ARG_OF_PERICENTER,MEAN_ANOMALY,BSTAR,MEAN_MOTION_DOT,MEAN_MOTION_DDOT,TLE_LINE0,TLE_LINE1,TLE_LINE2,SEMIMAJOR_AXIS,PERIOD,APOGEE,PERIGEE,DECAYED
53392.0,STARLINK-4535,PAYLOAD,2024-03-01 14:12:20,15.08839332,0.0001672,53.2177,197.5657,109.4306,250.6867,3.0083e-05,1.91e-06,0.0,0 STARLINK-4535,1 53392U 22097E   24061.59190694  .00000191  00000-0  30083-4 0  9997,2 53392  53.2177 197.5657 0001672 109.4306 250.6867 15.08839332 87245,6917.882,95.438,540.904,538.591,0.0
53392.0,STARLINK-4535,PAYLOAD,2024-03-01 15:47:43,15.08840385,0.0001414,53.2177,197.2688,94.9156,265.1998,1.1293e-05,-1.08e-06,0.0,0 STARLINK-4535,1 53392U 22097E   24061.65814719 -.00000108  00000-0  11293-4 0  9996,2 53392  53.2177 197.2688 0001414  94.9156 265.1998 15.08840385 87258,6917.879,95.438,540.722,538.766,0.0
53392.0,STARLINK-4535,PAYLOAD,2024-03-02 12:27:45,15.0883395,0.0001175,53.2172,193.407,84.729,275.3836,-0.00012582,-2.289e-05,0.0,0 STARLINK-4535,1 53392U 22097E   24062.51927951 -.00002289  00000-0 -12582-3 0  9999,2 53392  53.2172 193.4070 0001175  84.7290 275.3836 15.08833950 86732,6917.899,95.438,540.577,538.951,0.0
53392.0,STARLINK-4535,PAYLOAD,2024-03-02 14:03:08,15.08834066,0.0001173,53.2172,193.1086,83.4012,276.7114,-0.00013149,-2.38e-05,0.0,0 STARLINK-4535,1 53392U 22097E   24062.58551969 -.00002380  00000-0 -13149-3 0  9990,2 53392  53.2172 193.1086 0001173  83.4012 276.7114 15.08834066 87398,6917.899,95.438,540.575,538.952,0.0
53392.0,STARLINK-4535,PAYLOAD,2024-03-02 15:38:31,15.08835008,0.0001191,53.2174,192.8115,83.6688,276.444,-0.00012217,-2.231e-05,0.0,0 STARLINK-4535,1 53392U 22097E   24062.65175900 -.00002231  00000-0 -12217-3 0  9995,2 53392  53.2174 192.8115 0001191  83.6688 276.4440 15.08835008 87408,6917.896,95.438,540.585,538.937,0.0
53392.0,STARLINK-4535,PAYLOAD,2024-03-03 12:18:31,15.08841826,0.0001361,53.2171,188.9455,89.4802,270.6346,0.00013499,1.861e-05,0.0,0 STARLINK-4535,1 53392U 22097E   24063.51286914  .00001861  00000-0  13499-3 0  9998,2 53392  53.2171 188.9455 0001361  89.4802 270.6346 15.08841826 86886,6917.875,95.437,540.681,538.798,0.0
53392.0,STARLINK-4535,PAYLOAD,2024-03-03 13:53:54,15.08843108,0.0001369,53.217,188.6482,89.6793,270.4356,0.00014587,2.035e-05,0.0,0 STARLINK-4535,1 53392U 22097E   24063.57910793  .00002035  00000-0  14587-3 0  9996,2 53392  53.2170 188.6482 0001369  89.6793 270.4356 15.08843108 87549,6917.871,95.437,540.683,538.789,0.0
53392.0,STARLINK-4535,PAYLOAD,2024-03-04 13:44:41,15.08852148,0.0001572,53.2165,184.1886,99.849,260.268,0.00019199,2.77e-05,0.0,0 STARLINK-4535,1 53392U 22097E   24064.57269924  .00002770  00000-0  19199-3 0  9990,2 53392  53.2165 184.1886 0001572  99.8490 260.2680 15.08852148 87692,6917.843,95.437,540.796,538.621,0.0
53392.0,STARLINK-4535,PAYLOAD,2024-03-04 15:20:04,15.08857283,0.0001429,53.2166,183.8909,82.6501,277.4653,0.00024255,3.576e-05,0.0,0 STARLINK-4535,1 53392U 22097E   24064.63893558  .00003576  00000-0  24255-3 0  9997,2 53392  53.2166 183.8909 0001429  82.6501 277.4653 15.08857283 87054,6917.828,95.436,540.681,538.704,0.0
53392.0,STARLINK-4535,PAYLOAD,2024-03-05 13:35:29,15.08834836,0.0001401,53.2159,179.7243,77.5046,282.6103,-0.0002897,-4.895e-05,0.0,0 STARLINK-4535,1 53392U 22097E   24065.56631101 -.00004895  00000-0 -28970-3 0  9999,2 53392  53.2159 179.7243 0001401  77.5046 282.6103 15.08834836 87842,6917.896,95.438,540.73,538.792,0.0
53392.0,STARLINK-4535,PAYLOAD,2024-03-05 16:46:16,15.08836092,0.0001361,53.2168,179.1302,79.4416,280.6729,-0.00017856,-3.128e-05,0.0,0 STARLINK-4535,1 53392U 22097E   24065.69880098 -.00003128  00000-0 -17856-3 0  9993,2 53392  53.2168 179.1302 0001361  79.4416 280.6729 15.08836092 87218,6917.892,95.438,540.699,538.816,0.0
53392.0,STARLINK-4535,PAYLOAD,2024-03-06 11:50:53,15.08846068,0.0001443,53.2169,175.5614,79.3158,280.7997,-0.00010491,-1.958e-05,0.0,0 STARLINK-4535,1 53392U 22097E   24066.49367517 -.00001958  00000-0 -10491-3 0  9995,2 53392  53.2169 175.5614 0001443  79.3158 280.7997 15.08846068 87333,6917.862,95.437,540.725,538.729,0.0
53392.0,STARLINK-4535,PAYLOAD,2024-03-06 13:26:16,15.08848992,0.0001693,53.2169,175.2652,71.8001,288.3175,-5.6498e-05,-1.187e-05,0.0,0 STARLINK-4535,1 53392U 22097E   24066.55991283 -.00001187  00000-0 -56498-4 0  9997,2 53392  53.2169 175.2652 0001693  71.8001 288.3175 15.08848992 87995,6917.853,95.437,540.889,538.547,0.0
53392.0,STARLINK-4535,PAYLOAD,2024-03-07 00:33:57,15.08851889,0.0001437,53.2166,173.1837,90.0885,270.0272,2.187e-06,-2.53e-06,0.0,0 STARLINK-4535,1 53392U 22097E   24067.02358614 -.00000253  00000-0  21870-5 0  9994,2 53392  53.2166 173.1837 0001437  90.0885 270.0272 15.08851889 87415,6917.844,95.437,540.703,538.715,0.0
53392.0,STARLINK-4535,PAYLOAD,2024-03-07 13:17:04,15.08840245,0.0001721,53.2163,170.8063,83.5686,276.5502,0.00037166,5.632e-05,0.0,0 STARLINK-4535,1 53392U 22097E   24067.55351932  .00005632  00000-0  37166-3 0  9996,2 53392  53.2163 170.8063 0001721  83.5686 276.5502 15.08840245 88141,6917.88,95.438,540.935,538.554,0.0
53392.0,STARLINK-4535,PAYLOAD,2024-03-08 13:07:50,15.08854426,0.0001493,53.2161,166.3456,85.822,274.2943,8.6274e-05,1.086e-05,0.0,0 STARLINK-4535,1 53392U 22097E   24068.54710885  .00001086  00000-0  86274-4 0  9996,2 53392  53.2161 166.3456 0001493  85.8220 274.2943 15.08854426 88296,6917.836,95.437,540.734,538.668,0.0
53392.0,STARLINK-4535,PAYLOAD,2024-03-09 12:58:38,15.0883772,0.0001583,53.2166,161.886,85.2341,274.8832,2.6076e-05,1.27e-06,0.0,0 STARLINK-4535,1 53392U 22097E   24069.54072048  .00000127  00000-0  26076-4 0  9998,2 53392  53.2166 161.8860 0001583  85.2341 274.8832 15.08837720 87793,6917.887,95.438,540.847,538.657,0.0
53392.0,STARLINK-4535,PAYLOAD,2024-03-10 12:49:25,15.08843283,0.0001581,53.2178,157.4286,91.1075,269.0098,7.2168e-05,8.61e-06,0.0,0 STARLINK-4535,1 53392U 22097E   24070.53431777  .00000861  00000-0  72168-4 0  9995,2 53392  53.2178 157.4286 0001581  91.1075 269.0098 15.08843283 88597,6917.87,95.437,540.829,538.642,0.0
53392.0,STARLINK-4535,PAYLOAD,2024-03-10 22:21:44,15.08838187,0.0001149,53.2157,155.6418,76.1188,283.9932,0.00011713,1.577e-05,0.0,0 STARLINK-4535,1 53392U 22097E   24070.93175941  .00001577  00000-0  11713-3 0  9990,2 53392  53.2157 155.6418 0001149  76.1188 283.9932 15.08838187 88655,6917.886,95.438,540.546,538.956,0.0
53392.0,STARLINK-4535,PAYLOAD,2024-03-11 12:40:12,15.08839397,0.0001587,53.217,152.9683,102.7669,257.3501,0.0001646,2.333e-05,0.0,0 STARLINK-4535,1 53392U 22097E   24071.52791884  .00002333  00000-0  16460-3 0  9991,2 53392  53.2170 152.9683 0001587 102.7669 257.3501 15.08839397 88741,6917.882,95.438,540.845,538.649,0.0
53392.0,STARLINK-4535,PAYLOAD,2024-03-12 10:55:36,15.08840179,0.000148,53.2166,148.8057,104.6706,255.4451,4.4147e-05,4.15e-06,0.0,0 STARLINK-4535,1 53392U 22097E   24072.45528246  .00000415  00000-0  44147-4 0  9997,2 53392  53.2166 148.8057 0001480 104.6706 255.4451 15.08840179 88237,6917.88,95.438,540.769,538.721,0.0
53392.0,STARLINK-4535,PAYLOAD,2024-03-12 14:06:22,15.0884253,0.0001287,53.2155,148.2088,93.5202,266.5938,5.8647e-05,6.46e-06,0.0,0 STARLINK-4535,1 53392U 22097E   24072.58776053  .00000646  00000-0  58647-4 0  9998,2 53392  53.2155 148.2088 0001287  93.5202 266.5938 15.08842530 88905,6917.873,95.437,540.628,538.847,0.0
53392.0,STARLINK-4535,PAYLOAD,2024-03-13 12:21:46,15.08846514,0.000146,53.2165,144.0453,90.2093,269.9067,5.1124e-05,5.26e-06,0.0,0 STARLINK-4535,1 53392U 22097E   24073.51511880  .00000526  00000-0  51124-4 0  9997,2 53392  53.2165 144.0453 0001460  90.2093 269.9067 15.08846514 88390,6917.86,95.437,540.735,538.715,0.0
53392.0,STARLINK-4535,PAYLOAD,2024-03-14 04:15:37,15.08843332,0.0001494,53.2166,141.073,89.7007,270.4157,8.0034e-05,9.86e-06,0.0,0 STARLINK-4535,1 53392U 22097E   24074.17751959  .00000986  00000-0  80034-4 0  9995,2 53392  53.2166 141.0730 0001494  89.7007 270.4157 15.08843332 89147,6917.87,95.437,540.769,538.702,0.0
53392.0,STARLINK-4535,PAYLOAD,2024-03-14 10:37:10,15.08845773,0.0001513,53.2167,139.8838,87.5339,272.5827,9.5761e-05,1.237e-05,0.0,0 STARLINK-4535,1 53392U 22097E   24074.44247737  .00001237  00000-0  95761-4 0  9992,2 53392  53.2167 139.8838 0001513  87.5339 272.5827 15.08845773 89180,6917.863,95.437,540.774,538.681,0.0
53392.0,STARLINK-4535,PAYLOAD,2024-03-15 04:06:25,15.08838237,0.0001468,53.2179,136.6139,91.6225,268.4935,4.1518e-05,3.73e-06,0.0,0 STARLINK-4535,1 53392U 22097E   24075.17112291  .00000373  00000-0  41518-4 0  9990,2 53392  53.2179 136.6139 0001468  91.6225 268.4935 15.08838237 88642,6917.886,95.438,540.766,538.735,0.0
53392.0,STARLINK-4535,PAYLOAD,2024-03-15 10:27:57,15.08838423,0.000152,53.2172,135.4232,93.1486,266.968,1.7086e-05,-1.6e-07,0.0,0 STARLINK-4535,1 53392U 22097E   24075.43608330 -.00000016  00000-0  17086-4 0  9991,2 53392  53.2172 135.4232 0001520  93.1486 266.9680 15.08838423 89335,6917.885,95.438,540.802,538.699,0.0
53392.0,STARLINK-4535,PAYLOAD,2024-03-16 10:18:45,15.08834562,0.0001722,53.2178,130.9628,100.0719,260.0467,-2.2485e-05,-6.46e-06,0.0,0 STARLINK-4535,1 53392U 22097E   24076.42968828 -.00000646  00000-0 -22485-4 0  9991,2 53392  53.2178 130.9628 0001722 100.0719 260.0467 15.08834562 88833,6917.897,95.438,540.953,538.571,0.0
53392.0,STARLINK-4535,PAYLOAD,2024-03-17 10:09:31,15.08838785,0.0001648,53.2174,126.5011,96.4966,263.6214,8.9584e-05,1.138e-05,0.0,0 STARLINK-4535,1 53392U 22097E   24077.42328515  .00001138  00000-0  89584-4 0  9993,2 53392  53.2174 126.5011 0001648  96.4966 263.6214 15.08838785 89634,6917.884,95.438,540.889,538.609,0.0
53392.0,STARLINK-4535,PAYLOAD,2024-03-18 08:24:59,15.08795358,0.000122,53.2171,122.3384,79.8092,280.3038,-0.00026535,-4.503e-05,0.0,0 STARLINK-4535,1 53392U 22097E   24078.35068500 -.00004503  00000-0 -26535-3 0  9998,2 53392  53.2171 122.3384 0001220  79.8092 280.3038 15.08795358 89121,6918.017,95.44,540.726,539.038,0.0
